[{"OBJECT_NAME":"SAR-LUPE 2","OBJECT_ID":"2007-030A","EPOCH":"2026-04-26T14:24:09.402048","MEAN_MOTION":15.44434505,"ECCENTRICITY":0.00098422,"INCLINATION":98.0994,"RA_OF_ASC_NODE":214.9266,"ARG_OF_PERICENTER":293.8039,"MEAN_ANOMALY":66.2175,"EPHEMERIS_TYPE":0,"CLASSIFICATION_TYPE":"U","NORAD_CAT_ID":31797,"ELEMENT_SET_NO":999,"REV_AT_EPOCH":4896,"BSTAR":0.00067985264,"MEAN_MOTION_DOT":0.00031485,"MEAN_MOTION_DDOT":0},{"OBJECT_NAME":"SAPPHIRE","OBJECT_ID":"2013-009C","EPOCH":"2026-04-26T18:45:43.517088","MEAN_MOTION":14.35226188,"ECCENTRICITY":0.0012031,"INCLINATION":98.4252,"RA_OF_ASC_NODE":297.4608,"ARG_OF_PERICENTER":46.7189,"MEAN_ANOMALY":313.4999,"EPHEMERIS_TYPE":0,"CLASSIFICATION_TYPE":"U","NORAD_CAT_ID":39088,"ELEMENT_SET_NO":999,"REV_AT_EPOCH":68920,"BSTAR":5.2788e-5,"MEAN_MOTION_DOT":1.08e-6,"MEAN_MOTION_DDOT":0},{"OBJECT_NAME":"PRAETORIAN SDA_602","OBJECT_ID":"2025-203A","EPOCH":"2026-04-26T20:27:46.730016","MEAN_MOTION":13.84335849,"ECCENTRICITY":0.0005848,"INCLINATION":81.3038,"RA_OF_ASC_NODE":58.3153,"ARG_OF_PERICENTER":344.3711,"MEAN_ANOMALY":15.7264,"EPHEMERIS_TYPE":0,"CLASSIFICATION_TYPE":"U","NORAD_CAT_ID":65565,"ELEMENT_SET_NO":999,"REV_AT_EPOCH":3159,"BSTAR":0.00021098,"MEAN_MOTION_DOT":2.48e-6,"MEAN_MOTION_DDOT":0},{"OBJECT_NAME":"PRAETORIAN SDA_603","OBJECT_ID":"2025-203B","EPOCH":"2026-04-26T20:42:53.277696","MEAN_MOTION":13.83898764,"ECCENTRICITY":0.0009861,"INCLINATION":81.3046,"RA_OF_ASC_NODE":58.1834,"ARG_OF_PERICENTER":339.8038,"MEAN_ANOMALY":20.2727,"EPHEMERIS_TYPE":0,"CLASSIFICATION_TYPE":"U","NORAD_CAT_ID":65566,"ELEMENT_SET_NO":999,"REV_AT_EPOCH":3160,"BSTAR":0.00017609,"MEAN_MOTION_DOT":2.07e-6,"MEAN_MOTION_DDOT":0},{"OBJECT_NAME":"PRAETORIAN SDA_604","OBJECT_ID":"2025-203C","EPOCH":"2026-04-26T20:25:22.824768","MEAN_MOTION":13.83038875,"ECCENTRICITY":0.0005575,"INCLINATION":81.3058,"RA_OF_ASC_NODE":58.5302,"ARG_OF_PERICENTER":352.6818,"MEAN_ANOMALY":7.4256,"EPHEMERIS_TYPE":0,"CLASSIFICATION_TYPE":"U","NORAD_CAT_ID":65567,"ELEMENT_SET_NO":999,"REV_AT_EPOCH":3158,"BSTAR":1.5175e-6,"MEAN_MOTION_DOT":1.4e-7,"MEAN_MOTION_DDOT":0},{"OBJECT_NAME":"PRAETORIAN SDA_605","OBJECT_ID":"2025-203D","EPOCH":"2026-04-26T19:56:09.927744","MEAN_MOTION":13.83426865,"ECCENTRICITY":0.0007976,"INCLINATION":81.3025,"RA_OF_ASC_NODE":58.2624,"ARG_OF_PERICENTER":337.1541,"MEAN_ANOMALY":22.9259,"EPHEMERIS_TYPE":0,"CLASSIFICATION_TYPE":"U","NORAD_CAT_ID":65568,"ELEMENT_SET_NO":999,"REV_AT_EPOCH":3159,"BSTAR":6.6963e-5,"MEAN_MOTION_DOT":8.5e-7,"MEAN_MOTION_DDOT":0},{"OBJECT_NAME":"PRAETORIAN SDA_606","OBJECT_ID":"2025-203E","EPOCH":"2026-04-26T19:32:44.217888","MEAN_MOTION":13.83534444,"ECCENTRICITY":0.0005708,"INCLINATION":81.3061,"RA_OF_ASC_NODE":58.4817,"ARG_OF_PERICENTER":342.1713,"MEAN_ANOMALY":17.9242,"EPHEMERIS_TYPE":0,"CLASSIFICATION_TYPE":"U","NORAD_CAT_ID":65569,"ELEMENT_SET_NO":999,"REV_AT_EPOCH":3158,"BSTAR":8.1098e-5,"MEAN_MOTION_DOT":1.01e-6,"MEAN_MOTION_DDOT":0},{"OBJECT_NAME":"PRAETORIAN SDA_607","OBJECT_ID":"2025-203F","EPOCH":"2026-04-26T20:28:15.267936","MEAN_MOTION":13.84319282,"ECCENTRICITY":0.0008686,"INCLINATION":81.3042,"RA_OF_ASC_NODE":58.1839,"ARG_OF_PERICENTER":340.4882,"MEAN_ANOMALY":19.5941,"EPHEMERIS_TYPE":0,"CLASSIFICATION_TYPE":"U","NORAD_CAT_ID":65570,"ELEMENT_SET_NO":999,"REV_AT_EPOCH":3160,"BSTAR":0.00021843,"MEAN_MOTION_DOT":2.56e-6,"MEAN_MOTION_DDOT":0},{"OBJECT_NAME":"PRAETORIAN SDA_608","OBJECT_ID":"2025-203G","EPOCH":"2026-04-26T19:30:29.159136","MEAN_MOTION":13.83808478,"ECCENTRICITY":0.0006041,"INCLINATION":81.3013,"RA_OF_ASC_NODE":58.3621,"ARG_OF_PERICENTER":350.4333,"MEAN_ANOMALY":9.6707,"EPHEMERIS_TYPE":0,"CLASSIFICATION_TYPE":"U","NORAD_CAT_ID":65571,"ELEMENT_SET_NO":999,"REV_AT_EPOCH":3158,"BSTAR":3.6726e-5,"MEAN_MOTION_DOT":5.3e-7,"MEAN_MOTION_DDOT":0},{"OBJECT_NAME":"PRAETORIAN SDA_609","OBJECT_ID":"2025-203H","EPOCH":"2026-04-26T20:02:51.239328","MEAN_MOTION":13.84303556,"ECCENTRICITY":0.0006787,"INCLINATION":81.3058,"RA_OF_ASC_NODE":58.3386,"ARG_OF_PERICENTER":342.1776,"MEAN_ANOMALY":17.9142,"EPHEMERIS_TYPE":0,"CLASSIFICATION_TYPE":"U","NORAD_CAT_ID":65572,"ELEMENT_SET_NO":999,"REV_AT_EPOCH":3159,"BSTAR":0.00020628,"MEAN_MOTION_DOT":2.42e-6,"MEAN_MOTION_DDOT":0},{"OBJECT_NAME":"PRAETORIAN SDA_610","OBJECT_ID":"2025-203J","EPOCH":"2026-04-26T19:05:05.514144","MEAN_MOTION":13.83914715,"ECCENTRICITY":0.0006429,"INCLINATION":81.3014,"RA_OF_ASC_NODE":58.3415,"ARG_OF_PERICENTER":345.9325,"MEAN_ANOMALY":14.1651,"EPHEMERIS_TYPE":0,"CLASSIFICATION_TYPE":"U","NORAD_CAT_ID":65573,"ELEMENT_SET_NO":999,"REV_AT_EPOCH":3158,"BSTAR":3.2166e-5,"MEAN_MOTION_DOT":4.8e-7,"MEAN_MOTION_DDOT":0},{"OBJECT_NAME":"PRAETORIAN SDA_611","OBJECT_ID":"2025-203K","EPOCH":"2026-04-26T20:19:30.145152","MEAN_MOTION":13.83302758,"ECCENTRICITY":0.0005814,"INCLINATION":81.3013,"RA_OF_ASC_NODE":58.4131,"ARG_OF_PERICENTER":355.6924,"MEAN_ANOMALY":4.4181,"EPHEMERIS_TYPE":0,"CLASSIFICATION_TYPE":"U","NORAD_CAT_ID":65574,"ELEMENT_SET_NO":999,"REV_AT_EPOCH":3158,"BSTAR":0.00056336,"MEAN_MOTION_DOT":6.3e-6,"MEAN_MOTION_DDOT":0},{"OBJECT_NAME":"PRAETORIAN SDA_612","OBJECT_ID":"2025-203L","EPOCH":"2026-04-26T19:52:43.538016","MEAN_MOTION":13.85030244,"ECCENTRICITY":0.0009069,"INCLINATION":81.3035,"RA_OF_ASC_NODE":58.1436,"ARG_OF_PERICENTER":340.1084,"MEAN_ANOMALY":19.9718,"EPHEMERIS_TYPE":0,"CLASSIFICATION_TYPE":"U","NORAD_CAT_ID":65575,"ELEMENT_SET_NO":999,"REV_AT_EPOCH":3160,"BSTAR":0.00028911,"MEAN_MOTION_DOT":3.39e-6,"MEAN_MOTION_DDOT":0},{"OBJECT_NAME":"PRAETORIAN SDA_613","OBJECT_ID":"2025-203M","EPOCH":"2026-04-26T20:04:43.444416","MEAN_MOTION":13.82946556,"ECCENTRICITY":0.0005677,"INCLINATION":81.3006,"RA_OF_ASC_NODE":58.3873,"ARG_OF_PERICENTER":348.1141,"MEAN_ANOMALY":11.988,"EPHEMERIS_TYPE":0,"CLASSIFICATION_TYPE":"U","NORAD_CAT_ID":65576,"ELEMENT_SET_NO":999,"REV_AT_EPOCH":3158,"BSTAR":4.3596e-5,"MEAN_MOTION_DOT":5.9e-7,"MEAN_MOTION_DDOT":0},{"OBJECT_NAME":"PRAETORIAN SDA_614","OBJECT_ID":"2025-203N","EPOCH":"2026-04-26T19:23:16.524096","MEAN_MOTION":13.847708,"ECCENTRICITY":0.0006972,"INCLINATION":81.3021,"RA_OF_ASC_NODE":58.2277,"ARG_OF_PERICENTER":340.4021,"MEAN_ANOMALY":19.6867,"EPHEMERIS_TYPE":0,"CLASSIFICATION_TYPE":"U","NORAD_CAT_ID":65577,"ELEMENT_SET_NO":999,"REV_AT_EPOCH":3160,"BSTAR":4.0945e-5,"MEAN_MOTION_DOT":5.8e-7,"MEAN_MOTION_DDOT":0},{"OBJECT_NAME":"PRAETORIAN SDA_615","OBJECT_ID":"2025-203P","EPOCH":"2026-04-26T20:15:46.243872","MEAN_MOTION":13.84428453,"ECCENTRICITY":0.0008861,"INCLINATION":81.303,"RA_OF_ASC_NODE":58.125,"ARG_OF_PERICENTER":338.5957,"MEAN_ANOMALY":21.4828,"EPHEMERIS_TYPE":0,"CLASSIFICATION_TYPE":"U","NORAD_CAT_ID":65578,"ELEMENT_SET_NO":999,"REV_AT_EPOCH":3160,"BSTAR":0.00028843,"MEAN_MOTION_DOT":3.35e-6,"MEAN_MOTION_DDOT":0},{"OBJECT_NAME":"PRAETORIAN SDA_616","OBJECT_ID":"2025-203Q","EPOCH":"2026-04-26T20:17:39.713856","MEAN_MOTION":13.8331762,"ECCENTRICITY":0.0005526,"INCLINATION":81.307,"RA_OF_ASC_NODE":58.5284,"ARG_OF_PERICENTER":354.9953,"MEAN_ANOMALY":5.1147,"EPHEMERIS_TYPE":0,"CLASSIFICATION_TYPE":"U","NORAD_CAT_ID":65579,"ELEMENT_SET_NO":999,"REV_AT_EPOCH":3158,"BSTAR":0.000267,"MEAN_MOTION_DOT":3.05e-6,"MEAN_MOTION_DDOT":0}]
